STARLINK-31623          
1 59272U 24050U   26068.62623957 -.00001356  00000+0 -33687-4 0  9995
2 59272  53.1617 180.9527 0000477  74.7840 285.3213 15.30189981110540
TOMORROW-S2             
1 60485U 24149T   26068.75188364  .00008133  00000+0  27683-3 0  9990
2 60485  97.3857 150.0385 0001648 234.3331 125.7757 15.30674935 86869
